<?xml version="1.0" encoding="UTF-8"?>
<ndm xmlns:xsi="http://www.w3.org/2001/XMLSchema-instance" xsi:noNamespaceSchemaLocation="https://sanaregistry.org/r/ndmxml_unqualified/ndmxml-2.0.0-master-2.0.xsd">
<omm id="CCSDS_OMM_VERS" version="2.0">
<header><CREATION_DATE/><ORIGINATOR/></header><body><segment><metadata><OBJECT_NAME>ORBCOMM-X</OBJECT_NAME><OBJECT_ID>1991-050C</OBJECT_ID><CENTER_NAME>EARTH</CENTER_NAME><REF_FRAME>TEME</REF_FRAME><TIME_SYSTEM>UTC</TIME_SYSTEM><MEAN_ELEMENT_THEORY>SGP4</MEAN_ELEMENT_THEORY></metadata><data><meanElements><EPOCH>2024-06-16T10:53:23.129088</EPOCH><MEAN_MOTION>14.42554156</MEAN_MOTION><ECCENTRICITY>.00033</ECCENTRICITY><INCLINATION>98.3894</INCLINATION><RA_OF_ASC_NODE>235.6900</RA_OF_ASC_NODE><ARG_OF_PERICENTER>192.3115</ARG_OF_PERICENTER><MEAN_ANOMALY>167.7995</MEAN_ANOMALY></meanElements><tleParameters><EPHEMERIS_TYPE>0</EPHEMERIS_TYPE><CLASSIFICATION_TYPE>U</CLASSIFICATION_TYPE><NORAD_CAT_ID>21576</NORAD_CAT_ID><ELEMENT_SET_NO>999</ELEMENT_SET_NO><REV_AT_EPOCH>72937</REV_AT_EPOCH><BSTAR>.18451E-3</BSTAR><MEAN_MOTION_DOT>.569E-5</MEAN_MOTION_DOT><MEAN_MOTION_DDOT>0</MEAN_MOTION_DDOT></tleParameters></data></segment></body></omm>
<omm id="CCSDS_OMM_VERS" version="2.0">
<header><CREATION_DATE/><ORIGINATOR/></header><body><segment><metadata><OBJECT_NAME>ORBCOMM FM01</OBJECT_NAME><OBJECT_ID>1995-017A</OBJECT_ID><CENTER_NAME>EARTH</CENTER_NAME><REF_FRAME>TEME</REF_FRAME><TIME_SYSTEM>UTC</TIME_SYSTEM><MEAN_ELEMENT_THEORY>SGP4</MEAN_ELEMENT_THEORY></metadata><data><meanElements><EPOCH>2024-06-16T14:23:40.938432</EPOCH><MEAN_MOTION>14.80631597</MEAN_MOTION><ECCENTRICITY>.000555</ECCENTRICITY><INCLINATION>69.9671</INCLINATION><RA_OF_ASC_NODE>259.3704</RA_OF_ASC_NODE><ARG_OF_PERICENTER>190.1037</ARG_OF_PERICENTER><MEAN_ANOMALY>170.0002</MEAN_ANOMALY></meanElements><tleParameters><EPHEMERIS_TYPE>0</EPHEMERIS_TYPE><CLASSIFICATION_TYPE>U</CLASSIFICATION_TYPE><NORAD_CAT_ID>23545</NORAD_CAT_ID><ELEMENT_SET_NO>999</ELEMENT_SET_NO><REV_AT_EPOCH>55821</REV_AT_EPOCH><BSTAR>.97882E-3</BSTAR><MEAN_MOTION_DOT>.7459E-4</MEAN_MOTION_DOT><MEAN_MOTION_DDOT>0</MEAN_MOTION_DDOT></tleParameters></data></segment></body></omm>
<omm id="CCSDS_OMM_VERS" version="2.0">
<header><CREATION_DATE/><ORIGINATOR/></header><body><segment><metadata><OBJECT_NAME>ORBCOMM FM02</OBJECT_NAME><OBJECT_ID>1995-017B</OBJECT_ID><CENTER_NAME>EARTH</CENTER_NAME><REF_FRAME>TEME</REF_FRAME><TIME_SYSTEM>UTC</TIME_SYSTEM><MEAN_ELEMENT_THEORY>SGP4</MEAN_ELEMENT_THEORY></metadata><data><meanElements><EPOCH>2024-06-16T13:41:45.294432</EPOCH><MEAN_MOTION>14.80261381</MEAN_MOTION><ECCENTRICITY>.0007058</ECCENTRICITY><INCLINATION>69.9693</INCLINATION><RA_OF_ASC_NODE>278.9280</RA_OF_ASC_NODE><ARG_OF_PERICENTER>174.8161</ARG_OF_PERICENTER><MEAN_ANOMALY>185.3063</MEAN_ANOMALY></meanElements><tleParameters><EPHEMERIS_TYPE>0</EPHEMERIS_TYPE><CLASSIFICATION_TYPE>U</CLASSIFICATION_TYPE><NORAD_CAT_ID>23546</NORAD_CAT_ID><ELEMENT_SET_NO>999</ELEMENT_SET_NO><REV_AT_EPOCH>55785</REV_AT_EPOCH><BSTAR>.11015E-2</BSTAR><MEAN_MOTION_DOT>.8332E-4</MEAN_MOTION_DOT><MEAN_MOTION_DDOT>0</MEAN_MOTION_DDOT></tleParameters></data></segment></body></omm>
<omm id="CCSDS_OMM_VERS" version="2.0">
<header><CREATION_DATE/><ORIGINATOR/></header><body><segment><metadata><OBJECT_NAME>ORBCOMM FM08</OBJECT_NAME><OBJECT_ID>1997-084A</OBJECT_ID><CENTER_NAME>EARTH</CENTER_NAME><REF_FRAME>TEME</REF_FRAME><TIME_SYSTEM>UTC</TIME_SYSTEM><MEAN_ELEMENT_THEORY>SGP4</MEAN_ELEMENT_THEORY></metadata><data><meanElements><EPOCH>2024-06-16T12:19:15.561120</EPOCH><MEAN_MOTION>14.42797753</MEAN_MOTION><ECCENTRICITY>.0008658</ECCENTRICITY><INCLINATION>45.0155</INCLINATION><RA_OF_ASC_NODE>319.3718</RA_OF_ASC_NODE><ARG_OF_PERICENTER>204.3376</ARG_OF_PERICENTER><MEAN_ANOMALY>155.7066</MEAN_ANOMALY></meanElements><tleParameters><EPHEMERIS_TYPE>0</EPHEMERIS_TYPE><CLASSIFICATION_TYPE>U</CLASSIFICATION_TYPE><NORAD_CAT_ID>25112</NORAD_CAT_ID><ELEMENT_SET_NO>999</ELEMENT_SET_NO><REV_AT_EPOCH>38850</REV_AT_EPOCH><BSTAR>.7277E-3</BSTAR><MEAN_MOTION_DOT>.2307E-4</MEAN_MOTION_DOT><MEAN_MOTION_DDOT>0</MEAN_MOTION_DDOT></tleParameters></data></segment></body></omm>
<omm id="CCSDS_OMM_VERS" version="2.0">
<header><CREATION_DATE/><ORIGINATOR/></header><body><segment><metadata><OBJECT_NAME>ORBCOMM FM10</OBJECT_NAME><OBJECT_ID>1997-084B</OBJECT_ID><CENTER_NAME>EARTH</CENTER_NAME><REF_FRAME>TEME</REF_FRAME><TIME_SYSTEM>UTC</TIME_SYSTEM><MEAN_ELEMENT_THEORY>SGP4</MEAN_ELEMENT_THEORY></metadata><data><meanElements><EPOCH>2024-06-16T12:32:55.170528</EPOCH><MEAN_MOTION>14.42689447</MEAN_MOTION><ECCENTRICITY>.0006124</ECCENTRICITY><INCLINATION>45.0167</INCLINATION><RA_OF_ASC_NODE>321.2143</RA_OF_ASC_NODE><ARG_OF_PERICENTER>181.0242</ARG_OF_PERICENTER><MEAN_ANOMALY>179.0597</MEAN_ANOMALY></meanElements><tleParameters><EPHEMERIS_TYPE>0</EPHEMERIS_TYPE><CLASSIFICATION_TYPE>U</CLASSIFICATION_TYPE><NORAD_CAT_ID>25113</NORAD_CAT_ID><ELEMENT_SET_NO>999</ELEMENT_SET_NO><REV_AT_EPOCH>56365</REV_AT_EPOCH><BSTAR>.67541E-3</BSTAR><MEAN_MOTION_DOT>.2126E-4</MEAN_MOTION_DOT><MEAN_MOTION_DDOT>0</MEAN_MOTION_DDOT></tleParameters></data></segment></body></omm>
<omm id="CCSDS_OMM_VERS" version="2.0">
<header><CREATION_DATE/><ORIGINATOR/></header><body><segment><metadata><OBJECT_NAME>ORBCOMM FM11</OBJECT_NAME><OBJECT_ID>1997-084C</OBJECT_ID><CENTER_NAME>EARTH</CENTER_NAME><REF_FRAME>TEME</REF_FRAME><TIME_SYSTEM>UTC</TIME_SYSTEM><MEAN_ELEMENT_THEORY>SGP4</MEAN_ELEMENT_THEORY></metadata><data><meanElements><EPOCH>2024-06-16T13:04:30.297504</EPOCH><MEAN_MOTION>14.42565967</MEAN_MOTION><ECCENTRICITY>.0006903</ECCENTRICITY><INCLINATION>45.0151</INCLINATION><RA_OF_ASC_NODE>321.2091</RA_OF_ASC_NODE><ARG_OF_PERICENTER>180.3846</ARG_OF_PERICENTER><MEAN_ANOMALY>179.7000</MEAN_ANOMALY></meanElements><tleParameters><EPHEMERIS_TYPE>0</EPHEMERIS_TYPE><CLASSIFICATION_TYPE>U</CLASSIFICATION_TYPE><NORAD_CAT_ID>25114</NORAD_CAT_ID><ELEMENT_SET_NO>999</ELEMENT_SET_NO><REV_AT_EPOCH>38862</REV_AT_EPOCH><BSTAR>.74395E-3</BSTAR><MEAN_MOTION_DOT>.235E-4</MEAN_MOTION_DOT><MEAN_MOTION_DDOT>0</MEAN_MOTION_DDOT></tleParameters></data></segment></body></omm>
<omm id="CCSDS_OMM_VERS" version="2.0">
<header><CREATION_DATE/><ORIGINATOR/></header><body><segment><metadata><OBJECT_NAME>ORBCOMM FM12</OBJECT_NAME><OBJECT_ID>1997-084D</OBJECT_ID><CENTER_NAME>EARTH</CENTER_NAME><REF_FRAME>TEME</REF_FRAME><TIME_SYSTEM>UTC</TIME_SYSTEM><MEAN_ELEMENT_THEORY>SGP4</MEAN_ELEMENT_THEORY></metadata><data><meanElements><EPOCH>2024-06-16T13:47:39.928416</EPOCH><MEAN_MOTION>14.42529060</MEAN_MOTION><ECCENTRICITY>.0005944</ECCENTRICITY><INCLINATION>45.0160</INCLINATION><RA_OF_ASC_NODE>320.7744</RA_OF_ASC_NODE><ARG_OF_PERICENTER>182.0896</ARG_OF_PERICENTER><MEAN_ANOMALY>177.9931</MEAN_ANOMALY></meanElements><tleParameters><EPHEMERIS_TYPE>0</EPHEMERIS_TYPE><CLASSIFICATION_TYPE>U</CLASSIFICATION_TYPE><NORAD_CAT_ID>25115</NORAD_CAT_ID><ELEMENT_SET_NO>999</ELEMENT_SET_NO><REV_AT_EPOCH>38842</REV_AT_EPOCH><BSTAR>.68411E-3</BSTAR><MEAN_MOTION_DOT>.2147E-4</MEAN_MOTION_DOT><MEAN_MOTION_DDOT>0</MEAN_MOTION_DDOT></tleParameters></data></segment></body></omm>
<omm id="CCSDS_OMM_VERS" version="2.0">
<header><CREATION_DATE/><ORIGINATOR/></header><body><segment><metadata><OBJECT_NAME>ORBCOMM FM09</OBJECT_NAME><OBJECT_ID>1997-084E</OBJECT_ID><CENTER_NAME>EARTH</CENTER_NAME><REF_FRAME>TEME</REF_FRAME><TIME_SYSTEM>UTC</TIME_SYSTEM><MEAN_ELEMENT_THEORY>SGP4</MEAN_ELEMENT_THEORY></metadata><data><meanElements><EPOCH>2024-06-16T12:25:35.849856</EPOCH><MEAN_MOTION>14.42491547</MEAN_MOTION><ECCENTRICITY>.000675</ECCENTRICITY><INCLINATION>45.0163</INCLINATION><RA_OF_ASC_NODE>321.7446</RA_OF_ASC_NODE><ARG_OF_PERICENTER>167.7879</ARG_OF_PERICENTER><MEAN_ANOMALY>192.3136</MEAN_ANOMALY></meanElements><tleParameters><EPHEMERIS_TYPE>0</EPHEMERIS_TYPE><CLASSIFICATION_TYPE>U</CLASSIFICATION_TYPE><NORAD_CAT_ID>25116</NORAD_CAT_ID><ELEMENT_SET_NO>999</ELEMENT_SET_NO><REV_AT_EPOCH>38862</REV_AT_EPOCH><BSTAR>.71356E-3</BSTAR><MEAN_MOTION_DOT>.2244E-4</MEAN_MOTION_DOT><MEAN_MOTION_DDOT>0</MEAN_MOTION_DDOT></tleParameters></data></segment></body></omm>

</ndm>
