ORBCOMM-X               
1 21576U 91050C   24168.45373992  .00000569  00000+0  18451-3 0  9990
2 21576  98.3894 235.6900 0003300 192.3115 167.7995 14.42554156729376
ORBCOMM FM01            
1 23545U 95017A   24168.59977938  .00007459  00000+0  97882-3 0  9990
2 23545  69.9671 259.3704 0005550 190.1037 170.0002 14.80631597558210
ORBCOMM FM02            
1 23546U 95017B   24168.57066313  .00008332  00000+0  11015-2 0  9999
2 23546  69.9693 278.9280 0007058 174.8161 185.3063 14.80261381557858
ORBCOMM FM08            
1 25112U 97084A   24168.51337455  .00002307  00000+0  72770-3 0  9990
2 25112  45.0155 319.3718 0008658 204.3376 155.7066 14.42797753388500
ORBCOMM FM10            
1 25113U 97084B   24168.52286077  .00002126  00000+0  67541-3 0  9994
2 25113  45.0167 321.2143 0006124 181.0242 179.0597 14.42689447563656
ORBCOMM FM11            
1 25114U 97084C   24168.54479511  .00002350  00000+0  74395-3 0  9998
2 25114  45.0151 321.2091 0006903 180.3846 179.7000 14.42565967388627
ORBCOMM FM12            
1 25115U 97084D   24168.57476769  .00002147  00000+0  68411-3 0  9990
2 25115  45.0160 320.7744 0005944 182.0896 177.9931 14.42529060388420
ORBCOMM FM09            
1 25116U 97084E   24168.51777604  .00002244  00000+0  71356-3 0  9997
2 25116  45.0163 321.7446 0006750 167.7879 192.3136 14.42491547388629
